"65803 Didymos:Didymos:1996 GT" "Sol"
{
	Class	"asteroid"
	Mesh	"didymos.cmod"
	Texture	"asteroid.*"
	Radius	0.375
	EllipticalOrbit
	{
		Epoch	2457000.5  # 2014 Dec 09
		Period	2.108785394349
		SemiMajorAxis	1.644432766401
		Eccentricity	0.383752494179
		Inclination	3.407650302229
		AscendingNode	73.233292728302
		ArgOfPericenter	319.250402711419
		MeanAnomaly	96.832826104036
	}
	UniformRotation
	{
		Period	2.2593
	}
	LunarLambert	0.5
	GeomAlbedo	0.17
	InfoURL	"https://en.wikipedia.org/wiki/65803_Didymos"
}

"Dimorphos:65803 Didymos I:Didymos I:S 2003 (65803) 1" "Sol/65803 Didymos"
{
	Class	"minormoon"
	Mesh	"dimorphos.cmod"
	Texture	"asteroid.*"
	Radius	0.085
	EllipticalOrbit
	{
		Period	0.4958
		SemiMajorAxis	1.18
		Eccentricity	0.06
	}
	LunarLambert	0.5
	GeomAlbedo	0.17
	InfoURL	"https://en.wikipedia.org/wiki/Dimorphos"
}

# Radar-imaged asteroids

"1620 Geographos:Geographos:1951 RA:1983 CY3" "Sol"
{
	Class	"asteroid"
	Mesh	"geographos.cmod"
	MeshCenter	[ 0.154 -0.002 -0.026 ]
	Texture	"asteroid.*"
	Color	[ 1.0 0.950 0.840 ]
	BlendTexture	true
	Radius	2.5
	EllipticalOrbit
	{
		Epoch	2457000.5  # 2014 Dec 09
		Period	1.3901518471382
		SemiMajorAxis	1.245573498070266
		Eccentricity	0.335430907784686
		Inclination	13.33763553912958
		AscendingNode	337.2193489353145
		ArgOfPericenter	276.8688555134938
		MeanAnomaly	256.826134483741
	}
	UniformRotation
	{
		Period	5.22204
		Inclination	136
		AscendingNode	145
	}
	LunarLambert	0.5
	GeomAlbedo	0.3258
	InfoURL	"https://en.wikipedia.org/wiki/1620_Geographos"
}

"2063 Bacchus:Bacchus:1977 HB" "Sol"
{
	Class	"asteroid"
	Mesh	"bacchus.cmod"
	MeshCenter	[ -0.00936 -0.00610 0.00289 ]
	Texture	"asteroid.*"
	Color	[ 1.0 0.950 0.840 ]
	BlendTexture	true
	Radius	1.3
	EllipticalOrbit
	{
		Epoch	2457000.5  # 2014 Dec 09
		Period	1.1189823567767
		SemiMajorAxis	1.077812851809965
		Eccentricity	0.3493591230032135
		Inclination	9.432425275473552
		AscendingNode	33.1108977627244
		ArgOfPericenter	55.29954702156508
		MeanAnomaly	312.4660429303114
	}
	UniformRotation
	{
		Period	14.904
		Inclination	116
		AscendingNode	114
	}
	LunarLambert	0.5
	GeomAlbedo	0.56
	InfoURL	"https://en.wikipedia.org/wiki/2063_Bacchus"
}

"4179 Toutatis:Toutatis:1989 AC:1934 CT" "Sol"
{
	Class	"asteroid"
	Mesh	"toutatis.cmod"
	MeshCenter	[ 0.0313 0.2171 0.0064 ]
	Texture	"asteroid.*"
	Color	[ 1.0 0.950 0.840 ]
	BlendTexture	true
	Radius	2.13
	EllipticalOrbit
	{
		Epoch	2457000.5  # 2014 Dec 09
		Period	4.0335954783319
		SemiMajorAxis	2.533899735306762
		Eccentricity	0.6296101756201973
		Inclination	0.4471200287566686
		AscendingNode	124.3647618253029
		ArgOfPericenter	278.7510751311503
		MeanAnomaly	184.1319033839458
	}
	PrecessingRotation
	{
		Period	176
		Inclination	145
		PrecessionPeriod	-0.0201
	}
	LunarLambert	0.5
	GeomAlbedo	0.16
	InfoURL	"https://en.wikipedia.org/wiki/4179_Toutatis"
}

"4769 Castalia:Castalia:1989 PB" "Sol"
{
	Class	"asteroid"
	Mesh	"castalia.cmod"
	MeshCenter	[ -0.0456 -0.0347 -0.0178 ]
	Texture	"asteroid.*"
	Color	[ 1.0 0.950 0.840 ]
	BlendTexture	true
	Radius	0.9
	EllipticalOrbit
	{
		Epoch	2457000.5  # 2014 Dec 09
		Period	1.0964554311904
		SemiMajorAxis	1.06329846579985
		Eccentricity	0.4831758779219762
		Inclination	8.886375314583967
		AscendingNode	325.5963169809532
		ArgOfPericenter	121.3573923850026
		MeanAnomaly	327.6374077005201
	}
	UniformRotation
	{
		Period	4.095
		Inclination	146
		AscendingNode	325
	}
	LunarLambert	0.5
	GeomAlbedo	0.092
	InfoURL	"https://en.wikipedia.org/wiki/4769_Castalia"
}

"6489 Golevka:Golevka:1991 JX" "Sol"
{
	Class	"asteroid"
	Mesh	"golevka.cmod"
	MeshCenter	[ -0.0289 -0.0111 -0.0331 ]
	Texture	"asteroid.*"
	Color	[ 1.000 0.856 0.747 ]
	BlendTexture	true
	Radius	0.265
	EllipticalOrbit
	{
		Epoch	2451986.5  # 2001 Mar 18
		Period	3.9821799646425
		SemiMajorAxis	2.512320953350836
		Eccentricity	0.6009767835157114
		Inclination	2.287528857325901
		AscendingNode	212.1865625269534
		ArgOfPericenter	65.22830030999425
		MeanAnomaly	156.4488038691053
	}
	UniformRotation
	{
		Period	6.0289
		Inclination	135
		AscendingNode	292
	}
	LunarLambert	0.5
	GeomAlbedo	0.151
	InfoURL	"https://en.wikipedia.org/wiki/6489_Golevka"
}

ReferencePoint "Moshup-Squannit" "Sol"
{
	EllipticalOrbit
	{
		Epoch	2459000.5  # 2020 May 31
		Period	0.514817682456
		SemiMajorAxis	0.642337832594
		Eccentricity	0.688435164932
		Inclination	38.885669850051
		AscendingNode	244.904378892972
		ArgOfPericenter	192.642048182604
		MeanAnomaly	113.904635627734
	}
	# Make the orbit and label visible
	Visible true
	Clickable true
}

"66391 Moshup:Moshup:1999 KW4" "Sol"
{
	Class	"asteroid"
	Mesh	"moshup.cmod"
	Texture	"asteroid.*"
	Color	[ 1.0 0.88 0.75 ]
	BlendTexture	true
	Radius	0.766
	OrbitFrame
	{
		EquatorJ2000	{ Center "Sol/Moshup-Squannit" }
	}
	EllipticalOrbit
	{
		Epoch	2452055.91319  # 2001 May 26 09:55
		Period	0.72592916666667
		SemiMajorAxis	0.138
		Eccentricity	0.0004
		Inclination	156.1
		AscendingNode	105.4
		ArgOfPericenter	139.7
	}
	BodyFrame
	{
		EquatorJ2000	{ Center "Sol/Moshup-Squannit" }
	}
	UniformRotation
	{
		Period	2.7645
		Inclination	156.1
		AscendingNode	105.4
	}
	LunarLambert	0.5
	GeomAlbedo	0.26
	InfoURL	"https://en.wikipedia.org/wiki/66391_Moshup"
}

"Squannit:66391 Moshup I:Moshup I:S 2001 (66391) 1" "Sol/Moshup"
{
	Class	"minormoon"
	Mesh	"squannit.cmod"
	Texture	"asteroid.*"
	Color	[ 1.0 0.88 0.75 ]
	BlendTexture	true
	Radius	0.2855
	OrbitFrame
	{
		EquatorJ2000	{ Center "Sol/Moshup-Squannit" }
	}
	EllipticalOrbit
	{
		Epoch	2452055.91319  # 2001 May 26 09:55
		Period	0.72592916666667
		SemiMajorAxis	2.410
		Eccentricity	0.0004
		Inclination	156.1
		AscendingNode	105.4
		ArgOfPericenter	319.7
	}
	LunarLambert	0.5
	GeomAlbedo	0.26
	InfoURL	"https://en.wikipedia.org/wiki/66391_Moshup#Satellite"
}

"(153591) 2001 SN263:2001 SN263" "Sol"
{
	Class	"asteroid"
	Mesh	"sn263.cmod"
	Texture	"asteroid.*"
	Radius	1.3
	EllipticalOrbit
	{
		Epoch	2459000.5  # 2020 May 31
		Period	2.801966181037
		SemiMajorAxis	1.98748163629
		Eccentricity	0.47849263377
		Inclination	6.689258050585
		AscendingNode	325.767355444208
		ArgOfPericenter	172.948385085434
		MeanAnomaly	140.378378405441
	}
	UniformRotation
	{
		Period	3.4256
		Inclination	172.6115607
		AscendingNode	74.22588766
	}
	LunarLambert	0.5
	GeomAlbedo	0.048
	InfoURL	"https://en.wikipedia.org/wiki/(153591)_2001_SN263"
}

"S 2008 (153591) 2" "Sol/2001 SN263"
{
	Class	"minormoon"
	Mesh	"sn263-2.cmod"
	Texture	"asteroid.*"
	Radius	0.23
	OrbitFrame
	{
		EquatorJ2000	{ Center "Sol/2001 SN263" }
	}
	EllipticalOrbit
	{
		Epoch	2454509.5  # 2008 Feb 13
		Period	0.686
		SemiMajorAxis	3.804
		Eccentricity	0.016
		Inclination	165.045
		AscendingNode	198.689
		ArgOfPericenter	292.435
		MeanAnomaly	248.816
	}
	BodyFrame
	{
		EquatorJ2000	{ Center "Sol/2001 SN263" }
	}
	UniformRotation
	{
		Period	16.464
		Inclination	165.045
		AscendingNode	198.689
	}
	LunarLambert	0.5
	GeomAlbedo	0.048
	InfoURL	"https://en.wikipedia.org/wiki/(153591)_2001_SN263#Trinary_system"
}

"S 2008 (153591) 1" "Sol/2001 SN263"
{
	Class	"minormoon"
	Mesh	"sn263-1.cmod"
	Texture	"asteroid.*"
	Radius	0.53
	OrbitFrame
	{
		EquatorJ2000	{ Center "Sol/2001 SN263" }
	}
	EllipticalOrbit
	{
		Epoch	2454509.5  # 2008 Feb 13
		Period	6.225
		SemiMajorAxis	16.633
		Eccentricity	0.015
		Inclination	157.486
		AscendingNode	161.144
		ArgOfPericenter	131.249
		MeanAnomaly	212.658
	}
	BodyFrame
	{
		EquatorJ2000	{ Center "Sol/2001 SN263" }
	}
	UniformRotation
	{
		Period	13.42
		Inclination	157.486
		AscendingNode	161.144
	}
	LunarLambert	0.5
	GeomAlbedo	0.048
	InfoURL	"https://en.wikipedia.org/wiki/(153591)_2001_SN263#Trinary_system"
}

"1998 KY26" "Sol"
{
	Class	"asteroid"
	Mesh	"ky26.cmod"
	MeshCenter	[ -0.000718 -0.000099 0.000556 ]
	Texture	"asteroid.*"
	Radius	0.015
	EllipticalOrbit
	{
		Epoch	2457000.5  # 2014 Dec 09
		Period	1.368899121085
		SemiMajorAxis	1.232845993843401
		Eccentricity	0.2019176893830575
		Inclination	1.48044409000416
		AscendingNode	84.36214896718073
		ArgOfPericenter	209.3725697026434
		MeanAnomaly	359.5729719228407
	}
	UniformRotation
	{
		Period	0.1784
	}
	LunarLambert	0.5
	GeomAlbedo	0.124
	InfoURL	"https://en.wikipedia.org/wiki/1998_KY26"
}

# Notable Jupiter trojans

ReferencePoint "Patroclus-Menoetius" "Sol"
{
	EllipticalOrbit
	{
		Epoch	2457000.5  # 2014 Dec 09
		Period	11.8672211183947
		SemiMajorAxis	5.217589767847
		Eccentricity	0.139284878993
		Inclination	22.049245950923
		AscendingNode	44.363959282959
		ArgOfPericenter	308.482775981466
		MeanAnomaly	70.608674103869
	}
	# Make the orbit and label visible
	Visible true
	Clickable true
}

"617 Patroclus:Patroclus:1906 VY:1941 XC:1962 NB" "Sol/Patroclus-Menoetius"
{
	Class	"asteroid"
	Mesh	"roughsphere.cms"
	Texture	"asteroid.*"
	Radius	53
	EllipticalOrbit
	{
		Period	4.283
		SemiMajorAxis	300
		Eccentricity	0.02
		ArgOfPericenter	180
	}
	UniformRotation
	{
		Period	103.02
	}
	LunarLambert	0.5
	GeomAlbedo	0.047
	InfoURL	"https://en.wikipedia.org/wiki/617_Patroclus"
}

